[{"OBJECT_NAME":"STARLINK-3961","OBJECT_ID":"2022-052AR","EPOCH":"2026-03-09T19:24:16.738848","MEAN_MOTION":15.08838259,"ECCENTRICITY":0.00012864,"INCLINATION":53.2165,"RA_OF_ASC_NODE":258.5882,"ARG_OF_PERICENTER":100.0936,"MEAN_ANOMALY":260.0202,"EPHEMERIS_TYPE":0,"CLASSIFICATION_TYPE":"U","NORAD_CAT_ID":52637,"ELEMENT_SET_NO":999,"REV_AT_EPOCH":21195,"BSTAR":-1.9491046e-5,"MEAN_MOTION_DOT":-5.98e-6,"MEAN_MOTION_DDOT":0},{"OBJECT_NAME":"YUNYAO-1 46","OBJECT_ID":"2025-059D","EPOCH":"2026-03-09T22:34:36.342624","MEAN_MOTION":15.10325082,"ECCENTRICITY":0.00132847,"INCLINATION":97.6091,"RA_OF_ASC_NODE":250.9055,"ARG_OF_PERICENTER":123.8801,"MEAN_ANOMALY":236.3694,"EPHEMERIS_TYPE":0,"CLASSIFICATION_TYPE":"U","NORAD_CAT_ID":63347,"ELEMENT_SET_NO":999,"REV_AT_EPOCH":5331,"BSTAR":0.0002771923,"MEAN_MOTION_DOT":4.488e-5,"MEAN_MOTION_DDOT":0}]
